QZS-1R                  
1 49336U 21096A   23277.51017782 -.00000258  00000+0  00000+0 0  9999
2 49336  35.4158  94.4500 0745273 269.8452 327.1024  1.00282676  7119
